[{"OBJECT_NAME":"ONEWEB-0018","OBJECT_ID":"2020-020L","EPOCH":"2026-01-07T20:12:36.501696","MEAN_MOTION":13.1141669,"ECCENTRICITY":0.0001759,"INCLINATION":87.8835,"RA_OF_ASC_NODE":52.9877,"ARG_OF_PERICENTER":92.347,"MEAN_ANOMALY":267.7859,"EPHEMERIS_TYPE":0,"CLASSIFICATION_TYPE":"U","NORAD_CAT_ID":45434,"ELEMENT_SET_NO":999,"REV_AT_EPOCH":28161,"BSTAR":-0.0014765,"MEAN_MOTION_DOT":-5.11e-6,"MEAN_MOTION_DDOT":0},{"OBJECT_NAME":"ONEWEB-0083","OBJECT_ID":"2020-020M","EPOCH":"2026-01-07T19:59:11.395392","MEAN_MOTION":13.11416037,"ECCENTRICITY":0.0001719,"INCLINATION":87.8834,"RA_OF_ASC_NODE":52.9778,"ARG_OF_PERICENTER":97.0511,"MEAN_ANOMALY":263.0813,"EPHEMERIS_TYPE":0,"CLASSIFICATION_TYPE":"U","NORAD_CAT_ID":45435,"ELEMENT_SET_NO":999,"REV_AT_EPOCH":28165,"BSTAR":-0.0010836,"MEAN_MOTION_DOT":-3.71e-6,"MEAN_MOTION_DDOT":0},{"OBJECT_NAME":"ONEWEB-0095","OBJECT_ID":"2020-020N","EPOCH":"2026-01-07T16:06:13.127328","MEAN_MOTION":13.11415426,"ECCENTRICITY":0.0002088,"INCLINATION":87.8831,"RA_OF_ASC_NODE":53.0204,"ARG_OF_PERICENTER":119.5991,"MEAN_ANOMALY":240.5345,"EPHEMERIS_TYPE":0,"CLASSIFICATION_TYPE":"U","NORAD_CAT_ID":45436,"ELEMENT_SET_NO":999,"REV_AT_EPOCH":28163,"BSTAR":-0.00065222,"MEAN_MOTION_DOT":-2.18e-6,"MEAN_MOTION_DDOT":0},{"OBJECT_NAME":"ONEWEB-0092","OBJECT_ID":"2020-020P","EPOCH":"2026-01-07T15:25:46.006176","MEAN_MOTION":13.11417275,"ECCENTRICITY":0.0001903,"INCLINATION":87.8833,"RA_OF_ASC_NODE":53.0255,"ARG_OF_PERICENTER":104.1817,"MEAN_ANOMALY":255.9522,"EPHEMERIS_TYPE":0,"CLASSIFICATION_TYPE":"U","NORAD_CAT_ID":45437,"ELEMENT_SET_NO":999,"REV_AT_EPOCH":28174,"BSTAR":0.0012271,"MEAN_MOTION_DOT":4.48e-6,"MEAN_MOTION_DDOT":0},{"OBJECT_NAME":"ONEWEB-0085","OBJECT_ID":"2020-020Q","EPOCH":"2026-01-07T19:57:57.665952","MEAN_MOTION":13.11415728,"ECCENTRICITY":0.0001784,"INCLINATION":87.8824,"RA_OF_ASC_NODE":52.9949,"ARG_OF_PERICENTER":97.9212,"MEAN_ANOMALY":262.2119,"EPHEMERIS_TYPE":0,"CLASSIFICATION_TYPE":"U","NORAD_CAT_ID":45438,"ELEMENT_SET_NO":999,"REV_AT_EPOCH":28165,"BSTAR":-0.0010751,"MEAN_MOTION_DOT":-3.68e-6,"MEAN_MOTION_DDOT":0},{"OBJECT_NAME":"ONEWEB-0096","OBJECT_ID":"2020-020R","EPOCH":"2026-01-07T20:00:23.649120","MEAN_MOTION":13.11417154,"ECCENTRICITY":0.0001846,"INCLINATION":87.8836,"RA_OF_ASC_NODE":52.9772,"ARG_OF_PERICENTER":96.8892,"MEAN_ANOMALY":263.2446,"EPHEMERIS_TYPE":0,"CLASSIFICATION_TYPE":"U","NORAD_CAT_ID":45439,"ELEMENT_SET_NO":999,"REV_AT_EPOCH":28164,"BSTAR":-0.0011664,"MEAN_MOTION_DOT":-4.01e-6,"MEAN_MOTION_DDOT":0},{"OBJECT_NAME":"ONEWEB-0037","OBJECT_ID":"2020-020S","EPOCH":"2026-01-07T19:32:20.831136","MEAN_MOTION":13.11415037,"ECCENTRICITY":0.0001815,"INCLINATION":87.8842,"RA_OF_ASC_NODE":52.9532,"ARG_OF_PERICENTER":100.2538,"MEAN_ANOMALY":259.8795,"EPHEMERIS_TYPE":0,"CLASSIFICATION_TYPE":"U","NORAD_CAT_ID":45440,"ELEMENT_SET_NO":999,"REV_AT_EPOCH":28167,"BSTAR":0.00071367,"MEAN_MOTION_DOT":2.66e-6,"MEAN_MOTION_DDOT":0},{"OBJECT_NAME":"ONEWEB-0042","OBJECT_ID":"2020-020T","EPOCH":"2026-01-07T19:45:33.748992","MEAN_MOTION":13.11415351,"ECCENTRICITY":0.0001856,"INCLINATION":87.8832,"RA_OF_ASC_NODE":52.9784,"ARG_OF_PERICENTER":99.1019,"MEAN_ANOMALY":261.0319,"EPHEMERIS_TYPE":0,"CLASSIFICATION_TYPE":"U","NORAD_CAT_ID":45441,"ELEMENT_SET_NO":999,"REV_AT_EPOCH":28164,"BSTAR":-0.00024363,"MEAN_MOTION_DOT":-7.4e-7,"MEAN_MOTION_DDOT":0},{"OBJECT_NAME":"ONEWEB-0098","OBJECT_ID":"2020-020U","EPOCH":"2026-01-07T19:39:39.981600","MEAN_MOTION":13.11415496,"ECCENTRICITY":0.0001692,"INCLINATION":87.8831,"RA_OF_ASC_NODE":52.9911,"ARG_OF_PERICENTER":97.4002,"MEAN_ANOMALY":262.7318,"EPHEMERIS_TYPE":0,"CLASSIFICATION_TYPE":"U","NORAD_CAT_ID":45442,"ELEMENT_SET_NO":999,"REV_AT_EPOCH":28162,"BSTAR":0.0003331,"MEAN_MOTION_DOT":1.31e-6,"MEAN_MOTION_DDOT":0},{"OBJECT_NAME":"ONEWEB-0055","OBJECT_ID":"2020-020V","EPOCH":"2026-01-07T15:35:31.513920","MEAN_MOTION":13.11416462,"ECCENTRICITY":0.0001693,"INCLINATION":87.8833,"RA_OF_ASC_NODE":53.0252,"ARG_OF_PERICENTER":97.3689,"MEAN_ANOMALY":262.7631,"EPHEMERIS_TYPE":0,"CLASSIFICATION_TYPE":"U","NORAD_CAT_ID":45443,"ELEMENT_SET_NO":999,"REV_AT_EPOCH":28157,"BSTAR":0.0013928,"MEAN_MOTION_DOT":5.06e-6,"MEAN_MOTION_DDOT":0},{"OBJECT_NAME":"ONEWEB-0093","OBJECT_ID":"2020-020W","EPOCH":"2026-01-07T15:00:17.082144","MEAN_MOTION":13.1141855,"ECCENTRICITY":0.0002175,"INCLINATION":87.8839,"RA_OF_ASC_NODE":53.0178,"ARG_OF_PERICENTER":92.5848,"MEAN_ANOMALY":267.5529,"EPHEMERIS_TYPE":0,"CLASSIFICATION_TYPE":"U","NORAD_CAT_ID":45444,"ELEMENT_SET_NO":999,"REV_AT_EPOCH":28163,"BSTAR":-0.00096661,"MEAN_MOTION_DOT":-3.3e-6,"MEAN_MOTION_DDOT":0},{"OBJECT_NAME":"ONEWEB-0029","OBJECT_ID":"2020-020X","EPOCH":"2026-01-07T15:23:18.384864","MEAN_MOTION":13.11417017,"ECCENTRICITY":0.0001849,"INCLINATION":87.8837,"RA_OF_ASC_NODE":53.0271,"ARG_OF_PERICENTER":93.2975,"MEAN_ANOMALY":266.8364,"EPHEMERIS_TYPE":0,"CLASSIFICATION_TYPE":"U","NORAD_CAT_ID":45445,"ELEMENT_SET_NO":999,"REV_AT_EPOCH":28161,"BSTAR":0.0011694,"MEAN_MOTION_DOT":4.27e-6,"MEAN_MOTION_DDOT":0},{"OBJECT_NAME":"ONEWEB-0068","OBJECT_ID":"2020-020Y","EPOCH":"2026-01-07T14:59:54.446208","MEAN_MOTION":13.11418606,"ECCENTRICITY":0.0001877,"INCLINATION":87.8839,"RA_OF_ASC_NODE":53.0198,"ARG_OF_PERICENTER":92.7151,"MEAN_ANOMALY":267.4192,"EPHEMERIS_TYPE":0,"CLASSIFICATION_TYPE":"U","NORAD_CAT_ID":45446,"ELEMENT_SET_NO":999,"REV_AT_EPOCH":28155,"BSTAR":-0.00030173,"MEAN_MOTION_DOT":-9.4e-7,"MEAN_MOTION_DDOT":0},{"OBJECT_NAME":"ONEWEB-0046","OBJECT_ID":"2020-020Z","EPOCH":"2026-01-07T14:47:52.856736","MEAN_MOTION":13.11418051,"ECCENTRICITY":0.0002042,"INCLINATION":87.8839,"RA_OF_ASC_NODE":53.0292,"ARG_OF_PERICENTER":99.3482,"MEAN_ANOMALY":260.7877,"EPHEMERIS_TYPE":0,"CLASSIFICATION_TYPE":"U","NORAD_CAT_ID":45447,"ELEMENT_SET_NO":999,"REV_AT_EPOCH":28156,"BSTAR":-0.0018216,"MEAN_MOTION_DOT":-6.33e-6,"MEAN_MOTION_DDOT":0},{"OBJECT_NAME":"ONEWEB-0063","OBJECT_ID":"2020-020AA","EPOCH":"2026-01-07T15:29:25.145088","MEAN_MOTION":13.11416503,"ECCENTRICITY":0.0001944,"INCLINATION":87.8837,"RA_OF_ASC_NODE":53.021,"ARG_OF_PERICENTER":102.6726,"MEAN_ANOMALY":257.4619,"EPHEMERIS_TYPE":0,"CLASSIFICATION_TYPE":"U","NORAD_CAT_ID":45448,"ELEMENT_SET_NO":999,"REV_AT_EPOCH":28165,"BSTAR":0.0015677,"MEAN_MOTION_DOT":5.68e-6,"MEAN_MOTION_DDOT":0},{"OBJECT_NAME":"ONEWEB-0019","OBJECT_ID":"2020-020AB","EPOCH":"2026-01-07T20:05:04.707456","MEAN_MOTION":13.11403625,"ECCENTRICITY":0.0001655,"INCLINATION":87.8821,"RA_OF_ASC_NODE":52.9836,"ARG_OF_PERICENTER":95.0842,"MEAN_ANOMALY":265.0474,"EPHEMERIS_TYPE":0,"CLASSIFICATION_TYPE":"U","NORAD_CAT_ID":45449,"ELEMENT_SET_NO":999,"REV_AT_EPOCH":28152,"BSTAR":0.0050148,"MEAN_MOTION_DOT":1.79e-5,"MEAN_MOTION_DDOT":0},{"OBJECT_NAME":"ONEWEB-0094","OBJECT_ID":"2020-020AC","EPOCH":"2026-01-07T19:49:05.625984","MEAN_MOTION":13.17649682,"ECCENTRICITY":0.000173,"INCLINATION":87.9096,"RA_OF_ASC_NODE":37.7131,"ARG_OF_PERICENTER":90.1437,"MEAN_ANOMALY":269.9892,"EPHEMERIS_TYPE":0,"CLASSIFICATION_TYPE":"U","NORAD_CAT_ID":45450,"ELEMENT_SET_NO":999,"REV_AT_EPOCH":28519,"BSTAR":0.00018413,"MEAN_MOTION_DOT":8.4e-7,"MEAN_MOTION_DDOT":0},{"OBJECT_NAME":"ONEWEB-0087","OBJECT_ID":"2020-020AD","EPOCH":"2026-01-07T15:43:51.304224","MEAN_MOTION":13.11416916,"ECCENTRICITY":0.0001895,"INCLINATION":87.8845,"RA_OF_ASC_NODE":52.9799,"ARG_OF_PERICENTER":89.2192,"MEAN_ANOMALY":270.9153,"EPHEMERIS_TYPE":0,"CLASSIFICATION_TYPE":"U","NORAD_CAT_ID":45451,"ELEMENT_SET_NO":999,"REV_AT_EPOCH":28154,"BSTAR":0.0009963,"MEAN_MOTION_DOT":3.66e-6,"MEAN_MOTION_DDOT":0},{"OBJECT_NAME":"ONEWEB-0082","OBJECT_ID":"2020-020AE","EPOCH":"2026-01-07T15:39:10.920672","MEAN_MOTION":13.1141633,"ECCENTRICITY":0.0001862,"INCLINATION":87.8846,"RA_OF_ASC_NODE":53.0058,"ARG_OF_PERICENTER":90.1832,"MEAN_ANOMALY":269.9509,"EPHEMERIS_TYPE":0,"CLASSIFICATION_TYPE":"U","NORAD_CAT_ID":45452,"ELEMENT_SET_NO":999,"REV_AT_EPOCH":28163,"BSTAR":0.0012125,"MEAN_MOTION_DOT":4.42e-6,"MEAN_MOTION_DDOT":0},{"OBJECT_NAME":"ONEWEB-0050","OBJECT_ID":"2020-020AF","EPOCH":"2026-01-07T20:08:01.063680","MEAN_MOTION":14.89691985,"ECCENTRICITY":0.0003411,"INCLINATION":88.9222,"RA_OF_ASC_NODE":255.0828,"ARG_OF_PERICENTER":147.0683,"MEAN_ANOMALY":213.0759,"EPHEMERIS_TYPE":0,"CLASSIFICATION_TYPE":"U","NORAD_CAT_ID":45453,"ELEMENT_SET_NO":999,"REV_AT_EPOCH":31650,"BSTAR":0.00033351,"MEAN_MOTION_DOT":3.21e-5,"MEAN_MOTION_DDOT":0},{"OBJECT_NAME":"ONEWEB-0034","OBJECT_ID":"2020-020AG","EPOCH":"2026-01-07T19:49:24.498336","MEAN_MOTION":13.11415882,"ECCENTRICITY":0.0001771,"INCLINATION":87.883,"RA_OF_ASC_NODE":52.982,"ARG_OF_PERICENTER":96.6788,"MEAN_ANOMALY":263.4541,"EPHEMERIS_TYPE":0,"CLASSIFICATION_TYPE":"U","NORAD_CAT_ID":45454,"ELEMENT_SET_NO":999,"REV_AT_EPOCH":28157,"BSTAR":-0.0007018,"MEAN_MOTION_DOT":-2.36e-6,"MEAN_MOTION_DDOT":0},{"OBJECT_NAME":"ONEWEB-0060","OBJECT_ID":"2020-020AH","EPOCH":"2026-01-07T15:28:12.068832","MEAN_MOTION":13.11419358,"ECCENTRICITY":0.0002212,"INCLINATION":87.8825,"RA_OF_ASC_NODE":53.0334,"ARG_OF_PERICENTER":69.7803,"MEAN_ANOMALY":290.3563,"EPHEMERIS_TYPE":0,"CLASSIFICATION_TYPE":"U","NORAD_CAT_ID":45455,"ELEMENT_SET_NO":999,"REV_AT_EPOCH":28150,"BSTAR":0.0016257,"MEAN_MOTION_DOT":5.89e-6,"MEAN_MOTION_DDOT":0},{"OBJECT_NAME":"ONEWEB-0086","OBJECT_ID":"2020-020AJ","EPOCH":"2026-01-07T14:57:39.771072","MEAN_MOTION":13.1141865,"ECCENTRICITY":0.0001502,"INCLINATION":87.8838,"RA_OF_ASC_NODE":53.0197,"ARG_OF_PERICENTER":72.3471,"MEAN_ANOMALY":287.7821,"EPHEMERIS_TYPE":0,"CLASSIFICATION_TYPE":"U","NORAD_CAT_ID":45456,"ELEMENT_SET_NO":999,"REV_AT_EPOCH":28156,"BSTAR":-0.00053918,"MEAN_MOTION_DOT":-1.78e-6,"MEAN_MOTION_DDOT":0},{"OBJECT_NAME":"ONEWEB-0088","OBJECT_ID":"2020-020AK","EPOCH":"2026-01-07T19:55:31.395936","MEAN_MOTION":13.1141758,"ECCENTRICITY":0.0002045,"INCLINATION":87.8844,"RA_OF_ASC_NODE":52.9367,"ARG_OF_PERICENTER":99.8083,"MEAN_ANOMALY":260.3276,"EPHEMERIS_TYPE":0,"CLASSIFICATION_TYPE":"U","NORAD_CAT_ID":45457,"ELEMENT_SET_NO":999,"REV_AT_EPOCH":28152,"BSTAR":-0.0010859,"MEAN_MOTION_DOT":-3.72e-6,"MEAN_MOTION_DDOT":0}]
